NORAD_CAT_ID,OBJECT_NAME,OBJECT_TYPE,EPOCH,MEAN_MOTION,ECCENTRICITY,INCLINATION,RA_OF_ASC_NODE,ARG_OF_PERICENTER,MEAN_ANOMALY,BSTAR,MEAN_MOTION_DOT,MEAN_MOTION_DDOT,TLE_LINE0,TLE_LINE1,TLE_LINE2,SEMIMAJOR_AXIS,PERIOD,APOGEE,PERIGEE,DECAYED
53932.0,STARLINK-4772,PAYLOAD,2024-07-10 20:40:59,15.08836974,0.0001409,53.2162,143.3683,85.6612,274.4542,7.7933e-05,9.52e-06,0.0,0 STARLINK-4772,1 53932U 22119AY  24192.86180153  .00000952  00000-0  77933-4 0  9996,2 53932  53.2162 143.3683 0001409  85.6612 274.4542 15.08836974100003,6917.89,95.438,540.729,538.78,0.0
53932.0,STARLINK-4772,PAYLOAD,2024-07-11 06:13:17,15.08848114,0.0001349,53.2159,141.5837,90.3732,269.7415,8.5607e-05,1.075e-05,0.0,0 STARLINK-4772,1 53932U 22119AY  24193.25923439  .00001075  00000-0  85607-4 0  9996,2 53932  53.2159 141.5837 0001349  90.3732 269.7415 15.08848114100497,6917.856,95.437,540.654,538.787,0.0
53932.0,STARLINK-4772,PAYLOAD,2024-07-12 02:53:19,15.08834691,0.0001374,53.2146,137.7159,97.5303,262.5845,9.4243e-05,1.212e-05,0.0,0 STARLINK-4772,1 53932U 22119AY  24194.12036203  .00001212  00000-0  94243-4 0  9996,2 53932  53.2146 137.7159 0001374  97.5303 262.5845 15.08834691100198,6917.897,95.438,540.712,538.811,0.0
53932.0,STARLINK-4772,PAYLOAD,2024-07-12 06:04:05,15.08834901,0.0001284,53.2161,137.1199,105.5523,254.561,4.6211e-05,4.48e-06,0.0,0 STARLINK-4772,1 53932U 22119AY  24194.25284364  .00000448  00000-0  46211-4 0  9995,2 53932  53.2161 137.1199 0001284 105.5523 254.5610 15.08834901100642,6917.896,95.438,540.649,538.873,0.0
53932.0,STARLINK-4772,PAYLOAD,2024-07-13 02:44:05,15.08843448,0.0001331,53.216,133.2578,95.3197,264.7947,0.00010605,1.4e-05,0.0,0 STARLINK-4772,1 53932U 22119AY  24195.11395506  .00001400  00000-0  10605-3 0  9998,2 53932  53.2160 133.2578 0001331  95.3197 264.7947 15.08843448100344,6917.87,95.437,540.656,538.814,0.0
53932.0,STARLINK-4772,PAYLOAD,2024-07-13 20:13:20,15.08838372,0.0001313,53.2165,129.9873,98.2998,261.8143,1.981e-05,2.7e-07,0.0,0 STARLINK-4772,1 53932U 22119AY  24195.84259955  .00000027  00000-0  19810-4 0  9997,2 53932  53.2165 129.9873 0001313  98.2998 261.8143 15.08838372100458,6917.885,95.438,540.659,538.842,0.0
53932.0,STARLINK-4772,PAYLOAD,2024-07-14 02:34:53,15.08830225,0.0001323,53.2175,128.8004,100.031,260.0831,-2.6275e-05,-7.06e-06,0.0,0 STARLINK-4772,1 53932U 22119AY  24196.10756656 -.00000706  00000-0 -26275-4 0  9996,2 53932  53.2175 128.8004 0001323 100.0310 260.0831 15.08830225100492,6917.91,95.438,540.691,538.86,0.0
53932.0,STARLINK-4772,PAYLOAD,2024-07-14 12:07:11,15.08844727,0.0001309,53.2178,127.0146,94.4895,265.6247,4.1707e-05,3.76e-06,0.0,0 STARLINK-4772,1 53932U 22119AY  24196.50499547  .00000376  00000-0  41707-4 0  9991,2 53932  53.2178 127.0146 0001309  94.4895 265.6247 15.08844727100552,6917.866,95.437,540.636,538.825,0.0
53932.0,STARLINK-4772,PAYLOAD,2024-07-14 20:04:07,15.08841131,0.0001997,53.2173,125.5278,89.2807,270.8414,2.4828e-06,-2.49e-06,0.0,0 STARLINK-4772,1 53932U 22119AY  24196.83620169 -.00000249  00000-0  24828-5 0  9999,2 53932  53.2173 125.5278 0001997  89.2807 270.8414 15.08841131101038,6917.877,95.437,541.123,538.36,0.0
53932.0,STARLINK-4772,PAYLOAD,2024-07-15 04:01:03,15.08839637,0.000152,53.2187,124.0433,105.5243,254.5917,-1.1436e-05,-4.7e-06,0.0,0 STARLINK-4772,1 53932U 22119AY  24197.16740239 -.00000470  00000-0 -11436-4 0  9994,2 53932  53.2187 124.0433 0001520 105.5243 254.5917 15.08839637100650,6917.881,95.438,540.798,538.695,0.0
53932.0,STARLINK-4772,PAYLOAD,2024-07-15 11:57:58,15.08851294,0.0001259,53.2174,122.553,97.1458,262.9678,0.00014079,1.954e-05,0.0,0 STARLINK-4772,1 53932U 22119AY  24197.49858945  .00001954  00000-0  14079-3 0  9995,2 53932  53.2174 122.5530 0001259  97.1458 262.9678 15.08851294100706,6917.846,95.437,540.582,538.84,0.0
53932.0,STARLINK-4772,PAYLOAD,2024-07-16 03:51:51,15.08831482,0.000131,53.2178,119.5793,91.4729,268.6413,8.798e-05,1.112e-05,0.0,0 STARLINK-4772,1 53932U 22119AY  24198.16100808  .00001112  00000-0  87980-4 0  9996,2 53932  53.2178 119.5793 0001310  91.4729 268.6413 15.08831482100801,6917.906,95.438,540.678,538.865,0.0
53932.0,STARLINK-4772,PAYLOAD,2024-07-17 03:42:37,15.08849262,0.0001203,53.2171,115.1188,96.2743,263.8386,0.0001646,2.333e-05,0.0,0 STARLINK-4772,1 53932U 22119AY  24199.15459627  .00002333  00000-0  16460-3 0  9992,2 53932  53.2171 115.1188 0001203  96.2743 263.8386 15.08849262100951,6917.852,95.437,540.549,538.885,0.0
53932.0,STARLINK-4772,PAYLOAD,2024-07-17 11:39:32,15.08858851,0.0001118,53.2156,113.6322,94.3698,265.7422,0.00011499,1.544e-05,0.0,0 STARLINK-4772,1 53932U 22119AY  24199.48579007  .00001544  00000-0  11499-3 0  9993,2 53932  53.2156 113.6322 0001118  94.3698 265.7422 15.08858851101430,6917.823,95.436,540.461,538.914,0.0
53932.0,STARLINK-4772,PAYLOAD,2024-07-17 22:47:16,15.08820491,0.0001734,53.2173,111.547,95.4534,264.6656,5.2933e-05,5.54e-06,0.0,0 STARLINK-4772,1 53932U 22119AY  24199.94950042  .00000554  00000-0  52933-4 0  9995,2 53932  53.2173 111.5470 0001734  95.4534 264.6656 15.08820491101509,6917.94,95.439,541.005,538.605,0.0
53932.0,STARLINK-4772,PAYLOAD,2024-07-18 00:22:40,15.08815046,0.0001053,53.216,111.2523,98.9532,261.158,1.3327e-05,-7.6e-07,0.0,0 STARLINK-4772,1 53932U 22119AY  24200.01574474 -.00000076  00000-0  13327-4 0  9991,2 53932  53.2160 111.2523 0001053  98.9532 261.1580 15.08815046101082,6917.957,95.439,540.55,539.093,0.0
53932.0,STARLINK-4772,PAYLOAD,2024-07-18 11:30:20,15.08850774,0.0001133,53.2161,109.1717,85.4402,274.6719,7.0115e-05,8.29e-06,0.0,0 STARLINK-4772,1 53932U 22119AY  24200.47940120  .00000829  00000-0  70115-4 0  9999,2 53932  53.2161 109.1717 0001133  85.4402 274.6719 15.08850774101158,6917.847,95.437,540.496,538.929,0.0
53932.0,STARLINK-4772,PAYLOAD,2024-07-18 22:38:03,15.08834566,0.000181,53.2199,107.0851,101.1002,259.0194,6.421e-05,7.34e-06,0.0,0 STARLINK-4772,1 53932U 22119AY  24200.94309402  .00000734  00000-0  64210-4 0  9997,2 53932  53.2199 107.0851 0001810 101.1002 259.0194 15.08834566101659,6917.897,95.438,541.014,538.51,0.0
53932.0,STARLINK-4772,PAYLOAD,2024-07-19 00:13:26,15.08837594,0.0001357,53.2166,106.7912,101.6246,258.4898,-8.148e-05,-1.584e-05,0.0,0 STARLINK-4772,1 53932U 22119AY  24201.00933508 -.00001584  00000-0 -81480-4 0  9999,2 53932  53.2166 106.7912 0001357 101.6246 258.4898 15.08837594101230,6917.888,95.438,540.692,538.814,0.0
53932.0,STARLINK-4772,PAYLOAD,2024-07-19 11:21:07,15.08846117,0.0001582,53.2192,104.7052,120.5936,239.5212,-3.9846e-06,-3.51e-06,0.0,0 STARLINK-4772,1 53932U 22119AY  24201.47300575 -.00000351  00000-0 -39846-5 0  9993,2 53932  53.2192 104.7052 0001582 120.5936 239.5212 15.08846117101307,6917.862,95.437,540.821,538.632,0.0
53932.0,STARLINK-4772,PAYLOAD,2024-07-19 20:53:27,15.08829951,0.0001696,53.2178,102.9221,126.7453,233.3695,0.00019184,2.766e-05,0.0,0 STARLINK-4772,1 53932U 22119AY  24201.87045345  .00002766  00000-0  19184-3 0  9999,2 53932  53.2178 102.9221 0001696 126.7453 233.3695 15.08829951101367,6917.911,95.438,540.949,538.603,0.0
53932.0,STARLINK-4772,PAYLOAD,2024-07-19 22:28:50,15.08829319,0.0001671,53.2167,102.6247,123.0667,237.0486,0.00018303,2.625e-05,0.0,0 STARLINK-4772,1 53932U 22119AY  24201.93669449  .00002625  00000-0  18303-3 0  9999,2 53932  53.2167 102.6247 0001671 123.0667 237.0486 15.08829319101806,6917.913,95.438,540.934,538.622,0.0
53932.0,STARLINK-4772,PAYLOAD,2024-07-20 03:14:59,15.08843894,0.0001151,53.2167,101.7357,99.0425,261.0698,7.856e-05,9.63e-06,0.0,0 STARLINK-4772,1 53932U 22119AY  24202.13540915  .00000963  00000-0  78560-4 0  9993,2 53932  53.2167 101.7357 0001151  99.0425 261.0698 15.08843894101407,6917.868,95.437,540.53,538.937,0.0
53932.0,STARLINK-4772,PAYLOAD,2024-07-20 20:44:14,15.08833621,0.0001394,53.2171,98.4633,100.7467,259.3682,0.00013806,1.91e-05,0.0,0 STARLINK-4772,1 53932U 22119AY  24202.86405770  .00001910  00000-0  13806-3 0  9996,2 53932  53.2171  98.4633 0001394 100.7467 259.3682 15.08833621101518,6917.9,95.438,540.729,538.801,0.0
53932.0,STARLINK-4772,PAYLOAD,2024-07-20 22:19:37,15.08832279,0.0001304,53.2167,98.1658,99.2482,260.8658,0.00011098,1.478e-05,0.0,0 STARLINK-4772,1 53932U 22119AY  24202.93029872  .00001478  00000-0  11098-3 0  9999,2 53932  53.2167  98.1658 0001304  99.2482 260.8658 15.08832279101953,6917.904,95.438,540.671,538.867,0.0
53932.0,STARLINK-4772,PAYLOAD,2024-07-21 03:05:46,15.08838686,0.0001313,53.217,97.2753,118.5741,241.5383,7.5326e-05,9.11e-06,0.0,0 STARLINK-4772,1 53932U 22119AY  24203.12901520  .00000911  00000-0  75326-4 0  9996,2 53932  53.2170  97.2753 0001313 118.5741 241.5383 15.08838686101988,6917.884,95.438,540.658,538.841,0.0
53932.0,STARLINK-4772,PAYLOAD,2024-07-21 22:10:25,15.08833009,0.0001251,53.2164,93.7055,102.0253,258.0879,6.9631e-05,8.2e-06,0.0,0 STARLINK-4772,1 53932U 22119AY  24203.92390188  .00000820  00000-0  69631-4 0  9997,2 53932  53.2164  93.7055 0001251 102.0253 258.0879 15.08833009102106,6917.902,95.438,540.632,538.901,0.0
53932.0,STARLINK-4772,PAYLOAD,2024-07-22 02:56:34,15.08835519,0.00012,53.2164,92.814,100.2306,259.8821,5.4387e-05,5.78e-06,0.0,0 STARLINK-4772,1 53932U 22119AY  24204.12262143  .00000578  00000-0  54387-4 0  9991,2 53932  53.2164  92.8140 0001200 100.2306 259.8821 15.08835519101703,6917.894,95.438,540.589,538.929,0.0
53932.0,STARLINK-4772,PAYLOAD,2024-07-22 22:01:11,15.08842605,0.0001128,53.2164,89.246,100.2303,259.8816,0.00011775,1.587e-05,0.0,0 STARLINK-4772,1 53932U 22119AY  24204.91749541  .00001587  00000-0  11775-3 0  9994,2 53932  53.2164  89.2460 0001128 100.2303 259.8816 15.08842605102253,6917.872,95.437,540.518,538.957,0.0
53932.0,STARLINK-4772,PAYLOAD,2024-07-23 09:08:52,15.08861623,0.000113,53.2168,87.1639,72.3109,287.8007,0.00023974,3.532e-05,0.0,0 STARLINK-4772,1 53932U 22119AY  24205.38115900  .00003532  00000-0  23974-3 0  9998,2 53932  53.2168  87.1639 0001130  72.3109 287.8007 15.08861623101891,6917.814,95.436,540.461,538.898,0.0
